LANDSAT 9               
1 49260U 21088A   24248.75898647  .00002015  00000+0  45703-3 0  9993
2 49260  98.2259 317.3721 0001110  94.8470 265.2855 14.57137402156275
